<ndm xmlns:xsi="http://www.w3.org/2001/XMLSchema-instance" xsi:noNamespaceSchemaLocation="https://sanaregistry.org/r/ndmxml_unqualified/ndmxml-2.0.0-master-2.0.xsd">
<omm id="CCSDS_OMM_VERS" version="2.0">
<header>
<CREATION_DATE/>
<ORIGINATOR/>
</header>
<body>
<segment>
<metadata>
<OBJECT_NAME>IRIDIUM 73 [-]</OBJECT_NAME>
<OBJECT_ID>1998-032C</OBJECT_ID>
<CENTER_NAME>EARTH</CENTER_NAME>
<REF_FRAME>TEME</REF_FRAME>
<TIME_SYSTEM>UTC</TIME_SYSTEM>
<MEAN_ELEMENT_THEORY>SGP4</MEAN_ELEMENT_THEORY>
</metadata>
<data>
<meanElements>
<EPOCH>2023-04-16T06:41:19.866624</EPOCH>
<MEAN_MOTION>14.49822741</MEAN_MOTION>
<ECCENTRICITY>.0002737</ECCENTRICITY>
<INCLINATION>86.4478</INCLINATION>
<RA_OF_ASC_NODE>22.8169</RA_OF_ASC_NODE>
<ARG_OF_PERICENTER>97.6804</ARG_OF_PERICENTER>
<MEAN_ANOMALY>262.4711</MEAN_ANOMALY>
</meanElements>
<tleParameters>
<EPHEMERIS_TYPE>0</EPHEMERIS_TYPE>
<CLASSIFICATION_TYPE>U</CLASSIFICATION_TYPE>
<NORAD_CAT_ID>25344</NORAD_CAT_ID>
<ELEMENT_SET_NO>999</ELEMENT_SET_NO>
<REV_AT_EPOCH>31561</REV_AT_EPOCH>
<BSTAR>.26727E-3</BSTAR>
<MEAN_MOTION_DOT>.1051E-4</MEAN_MOTION_DOT>
<MEAN_MOTION_DDOT>0</MEAN_MOTION_DDOT>
</tleParameters>
</data>
</segment>
</body>
</omm>
<omm id="CCSDS_OMM_VERS" version="2.0">
<header>
<CREATION_DATE/>
<ORIGINATOR/>
</header>
<body>
<segment>
<metadata>
<OBJECT_NAME>IRIDIUM 82 [-]</OBJECT_NAME>
<OBJECT_ID>1998-051A</OBJECT_ID>
<CENTER_NAME>EARTH</CENTER_NAME>
<REF_FRAME>TEME</REF_FRAME>
<TIME_SYSTEM>UTC</TIME_SYSTEM>
<MEAN_ELEMENT_THEORY>SGP4</MEAN_ELEMENT_THEORY>
</metadata>
<data>
<meanElements>
<EPOCH>2023-04-16T12:41:26.149632</EPOCH>
<MEAN_MOTION>14.98903388</MEAN_MOTION>
<ECCENTRICITY>.0155286</ECCENTRICITY>
<INCLINATION>86.3932</INCLINATION>
<RA_OF_ASC_NODE>125.9234</RA_OF_ASC_NODE>
<ARG_OF_PERICENTER>339.2313</ARG_OF_PERICENTER>
<MEAN_ANOMALY>20.2649</MEAN_ANOMALY>
</meanElements>
<tleParameters>
<EPHEMERIS_TYPE>0</EPHEMERIS_TYPE>
<CLASSIFICATION_TYPE>U</CLASSIFICATION_TYPE>
<NORAD_CAT_ID>25467</NORAD_CAT_ID>
<ELEMENT_SET_NO>999</ELEMENT_SET_NO>
<REV_AT_EPOCH>30421</REV_AT_EPOCH>
<BSTAR>.10058E-2</BSTAR>
<MEAN_MOTION_DOT>.15698E-3</MEAN_MOTION_DOT>
<MEAN_MOTION_DDOT>0</MEAN_MOTION_DDOT>
</tleParameters>
</data>
</segment>
</body>
</omm>
<omm id="CCSDS_OMM_VERS" version="2.0">
<header>
<CREATION_DATE/>
<ORIGINATOR/>
</header>
<body>
<segment>
<metadata>
<OBJECT_NAME>IRIDIUM 2 [-]</OBJECT_NAME>
<OBJECT_ID>1998-066A</OBJECT_ID>
<CENTER_NAME>EARTH</CENTER_NAME>
<REF_FRAME>TEME</REF_FRAME>
<TIME_SYSTEM>UTC</TIME_SYSTEM>
<MEAN_ELEMENT_THEORY>SGP4</MEAN_ELEMENT_THEORY>
</metadata>
<data>
<meanElements>
<EPOCH>2023-04-16T07:03:15.131232</EPOCH>
<MEAN_MOTION>15.32184638</MEAN_MOTION>
<ECCENTRICITY>.0008443</ECCENTRICITY>
<INCLINATION>85.5279</INCLINATION>
<RA_OF_ASC_NODE>209.3117</RA_OF_ASC_NODE>
<ARG_OF_PERICENTER>155.5276</ARG_OF_PERICENTER>
<MEAN_ANOMALY>204.6375</MEAN_ANOMALY>
</meanElements>
<tleParameters>
<EPHEMERIS_TYPE>0</EPHEMERIS_TYPE>
<CLASSIFICATION_TYPE>U</CLASSIFICATION_TYPE>
<NORAD_CAT_ID>25527</NORAD_CAT_ID>
<ELEMENT_SET_NO>999</ELEMENT_SET_NO>
<REV_AT_EPOCH>34168</REV_AT_EPOCH>
<BSTAR>.11351E-2</BSTAR>
<MEAN_MOTION_DOT>.35433E-3</MEAN_MOTION_DOT>
<MEAN_MOTION_DDOT>0</MEAN_MOTION_DDOT>
</tleParameters>
</data>
</segment>
</body>
</omm>
</ndm>